{"type":"FeatureCollection","properties":{"description":"Barangay/neighborhood name labels for Cebu City, Mandaue City, Lapu-Lapu City (points only — no polygon data exists for these HUCs in any source checked)","source":"OpenStreetMap contributors, ODbL — https://www.openstreetmap.org/copyright","generatedAt":"2026-09-02T05:29:05.885Z"},"features":[{"type":"Feature","properties":{"name":"Cotcot","placeType":"suburb","source":"OpenStreetMap contributors (ODbL)"},"geometry":{"type":"Point","coordinates":[124.0016688,10.4275771]}},{"type":"Feature","properties":{"name":"Maria Luisa Estate","placeType":"neighbourhood","source":"OpenStreetMap contributors (ODbL)"},"geometry":{"type":"Point","coordinates":[123.9047385,10.3497984]}},{"type":"Feature","properties":{"name":"Holy Family Village","placeType":"neighbourhood","source":"OpenStreetMap contributors (ODbL)"},"geometry":{"type":"Point","coordinates":[123.9132874,10.3442009]}},{"type":"Feature","properties":{"name":"Mabolo","placeType":"suburb","source":"OpenStreetMap contributors (ODbL)"},"geometry":{"type":"Point","coordinates":[123.9147025,10.3142998]}},{"type":"Feature","properties":{"name":"Day-as","placeType":"quarter","source":"OpenStreetMap contributors (ODbL)"},"geometry":{"type":"Point","coordinates":[123.9022529,10.3014515]}},{"type":"Feature","properties":{"name":"Talamban","placeType":"suburb","source":"OpenStreetMap contributors (ODbL)"},"geometry":{"type":"Point","coordinates":[123.9169315,10.3693575]}},{"type":"Feature","properties":{"name":"Lahug","placeType":"suburb","source":"OpenStreetMap contributors (ODbL)"},"geometry":{"type":"Point","coordinates":[123.8981322,10.3309342]}},{"type":"Feature","properties":{"name":"Banilad","placeType":"suburb","source":"OpenStreetMap contributors (ODbL)"},"geometry":{"type":"Point","coordinates":[123.911112,10.3465194]}},{"type":"Feature","properties":{"name":"Guadalupe","placeType":"suburb","source":"OpenStreetMap contributors (ODbL)"},"geometry":{"type":"Point","coordinates":[123.8839389,10.3228797]}},{"type":"Feature","properties":{"name":"Kalunasan","placeType":"suburb","source":"OpenStreetMap contributors (ODbL)"},"geometry":{"type":"Point","coordinates":[123.879596,10.3389029]}},{"type":"Feature","properties":{"name":"Busay","placeType":"suburb","source":"OpenStreetMap contributors (ODbL)"},"geometry":{"type":"Point","coordinates":[123.8847401,10.3608094]}},{"type":"Feature","properties":{"name":"Tipolo","placeType":"suburb","source":"OpenStreetMap contributors (ODbL)"},"geometry":{"type":"Point","coordinates":[123.927546,10.3328177]}},{"type":"Feature","properties":{"name":"Maguikay","placeType":"suburb","source":"OpenStreetMap contributors (ODbL)"},"geometry":{"type":"Point","coordinates":[123.9360042,10.3397601]}},{"type":"Feature","properties":{"name":"Opao","placeType":"suburb","source":"OpenStreetMap contributors (ODbL)"},"geometry":{"type":"Point","coordinates":[123.9569421,10.328849]}},{"type":"Feature","properties":{"name":"Looc","placeType":"suburb","source":"OpenStreetMap contributors (ODbL)"},"geometry":{"type":"Point","coordinates":[123.9494884,10.3228534]}},{"type":"Feature","properties":{"name":"Cambaro","placeType":"suburb","source":"OpenStreetMap contributors (ODbL)"},"geometry":{"type":"Point","coordinates":[123.9494885,10.3281927]}},{"type":"Feature","properties":{"name":"Pajo","placeType":"suburb","source":"OpenStreetMap contributors (ODbL)"},"geometry":{"type":"Point","coordinates":[123.9612912,10.3160418]}},{"type":"Feature","properties":{"name":"Pusok","placeType":"suburb","source":"OpenStreetMap contributors (ODbL)"},"geometry":{"type":"Point","coordinates":[123.9743035,10.3245265]}},{"type":"Feature","properties":{"name":"Looc","placeType":"suburb","source":"OpenStreetMap contributors (ODbL)"},"geometry":{"type":"Point","coordinates":[123.9465067,10.3058085]}},{"type":"Feature","properties":{"name":"Basak","placeType":"suburb","source":"OpenStreetMap contributors (ODbL)"},"geometry":{"type":"Point","coordinates":[123.9655201,10.2895732]}},{"type":"Feature","properties":{"name":"Sudtungan","placeType":"neighbourhood","source":"OpenStreetMap contributors (ODbL)"},"geometry":{"type":"Point","coordinates":[123.9501892,10.2832052]}},{"type":"Feature","properties":{"name":"Canjulao","placeType":"suburb","source":"OpenStreetMap contributors (ODbL)"},"geometry":{"type":"Point","coordinates":[123.9414137,10.2959306]}},{"type":"Feature","properties":{"name":"Calawisan","placeType":"suburb","source":"OpenStreetMap contributors (ODbL)"},"geometry":{"type":"Point","coordinates":[123.9382131,10.2838304]}},{"type":"Feature","properties":{"name":"Ibabao","placeType":"suburb","source":"OpenStreetMap contributors (ODbL)"},"geometry":{"type":"Point","coordinates":[123.947438,10.2707536]}},{"type":"Feature","properties":{"name":"Dapitan","placeType":"suburb","source":"OpenStreetMap contributors (ODbL)"},"geometry":{"type":"Point","coordinates":[123.9495727,10.2661861]}},{"type":"Feature","properties":{"name":"Pilipog","placeType":"suburb","source":"OpenStreetMap contributors (ODbL)"},"geometry":{"type":"Point","coordinates":[123.9436025,10.2667249]}},{"type":"Feature","properties":{"name":"Cogon","placeType":"suburb","source":"OpenStreetMap contributors (ODbL)"},"geometry":{"type":"Point","coordinates":[123.9522684,10.2639892]}},{"type":"Feature","properties":{"name":"San Miguel","placeType":"suburb","source":"OpenStreetMap contributors (ODbL)"},"geometry":{"type":"Point","coordinates":[123.9458152,10.2626036]}},{"type":"Feature","properties":{"name":"Bangbang","placeType":"suburb","source":"OpenStreetMap contributors (ODbL)"},"geometry":{"type":"Point","coordinates":[123.9439905,10.2589319]}},{"type":"Feature","properties":{"name":"Day-as","placeType":"suburb","source":"OpenStreetMap contributors (ODbL)"},"geometry":{"type":"Point","coordinates":[123.9377525,10.2548653]}},{"type":"Feature","properties":{"name":"Suba-Basbas","placeType":"suburb","source":"OpenStreetMap contributors (ODbL)"},"geometry":{"type":"Point","coordinates":[123.9712171,10.2633949]}},{"type":"Feature","properties":{"name":"Agus","placeType":"suburb","source":"OpenStreetMap contributors (ODbL)"},"geometry":{"type":"Point","coordinates":[123.9843016,10.2807554]}},{"type":"Feature","properties":{"name":"Marigondon","placeType":"suburb","source":"OpenStreetMap contributors (ODbL)"},"geometry":{"type":"Point","coordinates":[123.9760833,10.2744239]}},{"type":"Feature","properties":{"name":"Pajac","placeType":"suburb","source":"OpenStreetMap contributors (ODbL)"},"geometry":{"type":"Point","coordinates":[123.9827935,10.2976495]}},{"type":"Feature","properties":{"name":"Maribago","placeType":"suburb","source":"OpenStreetMap contributors (ODbL)"},"geometry":{"type":"Point","coordinates":[123.9929719,10.2850724]}},{"type":"Feature","properties":{"name":"Buaya","placeType":"suburb","source":"OpenStreetMap contributors (ODbL)"},"geometry":{"type":"Point","coordinates":[123.9947737,10.3156788]}},{"type":"Feature","properties":{"name":"Ibo","placeType":"suburb","source":"OpenStreetMap contributors (ODbL)"},"geometry":{"type":"Point","coordinates":[123.9884238,10.3304368]}},{"type":"Feature","properties":{"name":"Mactan","placeType":"suburb","source":"OpenStreetMap contributors (ODbL)"},"geometry":{"type":"Point","coordinates":[124.0109228,10.3088002]}},{"type":"Feature","properties":{"name":"Gabi","placeType":"suburb","source":"OpenStreetMap contributors (ODbL)"},"geometry":{"type":"Point","coordinates":[123.9616704,10.2635215]}},{"type":"Feature","properties":{"name":"Alegria","placeType":"suburb","source":"OpenStreetMap contributors (ODbL)"},"geometry":{"type":"Point","coordinates":[123.9591531,10.2566275]}},{"type":"Feature","properties":{"name":"Punta Princesa","placeType":"suburb","source":"OpenStreetMap contributors (ODbL)"},"geometry":{"type":"Point","coordinates":[123.8701668,10.2949316]}},{"type":"Feature","properties":{"name":"Poblacion Pardo","placeType":"suburb","source":"OpenStreetMap contributors (ODbL)"},"geometry":{"type":"Point","coordinates":[123.8554165,10.2794327]}},{"type":"Feature","properties":{"name":"Buhisan","placeType":"suburb","source":"OpenStreetMap contributors (ODbL)"},"geometry":{"type":"Point","coordinates":[123.8534727,10.3087947]}},{"type":"Feature","properties":{"name":"Upper Busay","placeType":"neighbourhood","source":"OpenStreetMap contributors (ODbL)"},"geometry":{"type":"Point","coordinates":[123.8734551,10.3727207]}},{"type":"Feature","properties":{"name":"Tayud","placeType":"suburb","source":"OpenStreetMap contributors (ODbL)"},"geometry":{"type":"Point","coordinates":[123.9824304,10.3624068]}},{"type":"Feature","properties":{"name":"Tubongan","placeType":"neighbourhood","source":"OpenStreetMap contributors (ODbL)"},"geometry":{"type":"Point","coordinates":[123.9539734,10.3613567]}},{"type":"Feature","properties":{"name":"Tayud","placeType":"suburb","source":"OpenStreetMap contributors (ODbL)"},"geometry":{"type":"Point","coordinates":[123.9940355,10.3782144]}},{"type":"Feature","properties":{"name":"Pit-os","placeType":"suburb","source":"OpenStreetMap contributors (ODbL)"},"geometry":{"type":"Point","coordinates":[123.9216928,10.3963948]}},{"type":"Feature","properties":{"name":"Canduman","placeType":"suburb","source":"OpenStreetMap contributors (ODbL)"},"geometry":{"type":"Point","coordinates":[123.933558,10.3677145]}},{"type":"Feature","properties":{"name":"Cabancalan","placeType":"suburb","source":"OpenStreetMap contributors (ODbL)"},"geometry":{"type":"Point","coordinates":[123.9241562,10.3509984]}},{"type":"Feature","properties":{"name":"Catarman","placeType":"suburb","source":"OpenStreetMap contributors (ODbL)"},"geometry":{"type":"Point","coordinates":[124.0109598,10.3868244]}},{"type":"Feature","properties":{"name":"Jubay","placeType":"suburb","source":"OpenStreetMap contributors (ODbL)"},"geometry":{"type":"Point","coordinates":[123.996835,10.4150599]}},{"type":"Feature","properties":{"name":"Yati","placeType":"suburb","source":"OpenStreetMap contributors (ODbL)"},"geometry":{"type":"Point","coordinates":[123.981378,10.3897294]}},{"type":"Feature","properties":{"name":"Cabangahan","placeType":"village","source":"OpenStreetMap contributors (ODbL)"},"geometry":{"type":"Point","coordinates":[123.924634,10.4039618]}},{"type":"Feature","properties":{"name":"Budla-an","placeType":"village","source":"OpenStreetMap contributors (ODbL)"},"geometry":{"type":"Point","coordinates":[123.885939,10.3792606]}},{"type":"Feature","properties":{"name":"Guba","placeType":"village","source":"OpenStreetMap contributors (ODbL)"},"geometry":{"type":"Point","coordinates":[123.8898991,10.4282293]}},{"type":"Feature","properties":{"name":"Tolotolo","placeType":"suburb","source":"OpenStreetMap contributors (ODbL)"},"geometry":{"type":"Point","coordinates":[123.9423088,10.3921561]}},{"type":"Feature","properties":{"name":"Pulpogan","placeType":"suburb","source":"OpenStreetMap contributors (ODbL)"},"geometry":{"type":"Point","coordinates":[123.9569595,10.385799]}},{"type":"Feature","properties":{"name":"Tisa","placeType":"suburb","source":"OpenStreetMap contributors (ODbL)"},"geometry":{"type":"Point","coordinates":[123.8689577,10.3020584]}},{"type":"Feature","properties":{"name":"Labangon","placeType":"suburb","source":"OpenStreetMap contributors (ODbL)"},"geometry":{"type":"Point","coordinates":[123.8790934,10.2993851]}},{"type":"Feature","properties":{"name":"Verie Hills","placeType":"neighbourhood","source":"OpenStreetMap contributors (ODbL)"},"geometry":{"type":"Point","coordinates":[123.9876258,10.396457]}},{"type":"Feature","properties":{"name":"Pulangbato","placeType":"suburb","source":"OpenStreetMap contributors (ODbL)"},"geometry":{"type":"Point","coordinates":[123.9063182,10.3979391]}},{"type":"Feature","properties":{"name":"Sitio Sayaw","placeType":"hamlet","source":"OpenStreetMap contributors (ODbL)"},"geometry":{"type":"Point","coordinates":[123.8652396,10.4276032]}},{"type":"Feature","properties":{"name":"Sirao","placeType":"village","source":"OpenStreetMap contributors (ODbL)"},"geometry":{"type":"Point","coordinates":[123.8722133,10.4141258]}},{"type":"Feature","properties":{"name":"Babag Ⅱ","placeType":"village","source":"OpenStreetMap contributors (ODbL)"},"geometry":{"type":"Point","coordinates":[123.8500003,10.3739747]}},{"type":"Feature","properties":{"name":"San Jose","placeType":"suburb","source":"OpenStreetMap contributors (ODbL)"},"geometry":{"type":"Point","coordinates":[123.9164422,10.3790912]}},{"type":"Feature","properties":{"name":"Dona Rosario Village","placeType":"neighbourhood","source":"OpenStreetMap contributors (ODbL)"},"geometry":{"type":"Point","coordinates":[123.9488256,10.3473697]}},{"type":"Feature","properties":{"name":"Saint Martin Village","placeType":"neighbourhood","source":"OpenStreetMap contributors (ODbL)"},"geometry":{"type":"Point","coordinates":[123.9276984,10.3380916]}},{"type":"Feature","properties":{"name":"Pung-ol Sibugay","placeType":"village","source":"OpenStreetMap contributors (ODbL)"},"geometry":{"type":"Point","coordinates":[123.8495485,10.3969512]}},{"type":"Feature","properties":{"name":"Basak San Nicolas","placeType":"suburb","source":"OpenStreetMap contributors (ODbL)"},"geometry":{"type":"Point","coordinates":[123.8703173,10.2864738]}},{"type":"Feature","properties":{"name":"Sambag I","placeType":"quarter","source":"OpenStreetMap contributors (ODbL)"},"geometry":{"type":"Point","coordinates":[123.8920387,10.3008064]}},{"type":"Feature","properties":{"name":"Panoypoy","placeType":"village","source":"OpenStreetMap contributors (ODbL)"},"geometry":{"type":"Point","coordinates":[123.9287441,10.4178208]}},{"type":"Feature","properties":{"name":"Polog","placeType":"village","source":"OpenStreetMap contributors (ODbL)"},"geometry":{"type":"Point","coordinates":[123.9424843,10.4073172]}},{"type":"Feature","properties":{"name":"Garing","placeType":"village","source":"OpenStreetMap contributors (ODbL)"},"geometry":{"type":"Point","coordinates":[123.9450688,10.4196776]}},{"type":"Feature","properties":{"name":"Bacayan","placeType":"suburb","source":"OpenStreetMap contributors (ODbL)"},"geometry":{"type":"Point","coordinates":[123.9198756,10.3855454]}},{"type":"Feature","properties":{"name":"Guizo","placeType":"suburb","source":"OpenStreetMap contributors (ODbL)"},"geometry":{"type":"Point","coordinates":[123.937993,10.3314147]}},{"type":"Feature","properties":{"name":"Seabreeze Homes","placeType":"neighbourhood","source":"OpenStreetMap contributors (ODbL)"},"geometry":{"type":"Point","coordinates":[124.001796,10.3131509]}},{"type":"Feature","properties":{"name":"Vonex Valley","placeType":"neighbourhood","source":"OpenStreetMap contributors (ODbL)"},"geometry":{"type":"Point","coordinates":[123.8971871,10.3984706]}},{"type":"Feature","properties":{"name":"Kamandagan","placeType":"hamlet","source":"OpenStreetMap contributors (ODbL)"},"geometry":{"type":"Point","coordinates":[123.8573721,10.4125894]}},{"type":"Feature","properties":{"name":"Buagsong","placeType":"neighbourhood","source":"OpenStreetMap contributors (ODbL)"},"geometry":{"type":"Point","coordinates":[123.9491534,10.3207939]}},{"type":"Feature","properties":{"name":"Labogon","placeType":"suburb","source":"OpenStreetMap contributors (ODbL)"},"geometry":{"type":"Point","coordinates":[123.9544765,10.3525794]}},{"type":"Feature","properties":{"name":"Payahan","placeType":"hamlet","source":"OpenStreetMap contributors (ODbL)"},"geometry":{"type":"Point","coordinates":[123.8921007,10.4167275]}},{"type":"Feature","properties":{"name":"Sayao","placeType":"hamlet","source":"OpenStreetMap contributors (ODbL)"},"geometry":{"type":"Point","coordinates":[123.8546406,10.4237348]}},{"type":"Feature","properties":{"name":"Consuelo Village","placeType":"neighbourhood","source":"OpenStreetMap contributors (ODbL)"},"geometry":{"type":"Point","coordinates":[123.9487602,10.3593169]}},{"type":"Feature","properties":{"name":"Sun Valley","placeType":"neighbourhood","source":"OpenStreetMap contributors (ODbL)"},"geometry":{"type":"Point","coordinates":[123.885924,10.307583]}},{"type":"Feature","properties":{"name":"Sunflower Subdivision","placeType":"neighbourhood","source":"OpenStreetMap contributors (ODbL)"},"geometry":{"type":"Point","coordinates":[123.8839392,10.3065702]}},{"type":"Feature","properties":{"name":"Happy Valley","placeType":"neighbourhood","source":"OpenStreetMap contributors (ODbL)"},"geometry":{"type":"Point","coordinates":[123.8824825,10.3079409]}},{"type":"Feature","properties":{"name":"Gonzales Compound","placeType":"neighbourhood","source":"OpenStreetMap contributors (ODbL)"},"geometry":{"type":"Point","coordinates":[123.8985997,10.3171993]}},{"type":"Feature","properties":{"name":"Pristina North","placeType":"neighbourhood","source":"OpenStreetMap contributors (ODbL)"},"geometry":{"type":"Point","coordinates":[123.9236228,10.3774931]}},{"type":"Feature","properties":{"name":"Paknaan","placeType":"suburb","source":"OpenStreetMap contributors (ODbL)"},"geometry":{"type":"Point","coordinates":[123.9602134,10.3462184]}},{"type":"Feature","properties":{"name":"San Isidro","placeType":"suburb","source":"OpenStreetMap contributors (ODbL)"},"geometry":{"type":"Point","coordinates":[123.8403749,10.2598872]}},{"type":"Feature","properties":{"name":"City Homes","placeType":"neighbourhood","source":"OpenStreetMap contributors (ODbL)"},"geometry":{"type":"Point","coordinates":[123.9701831,10.2935883]}},{"type":"Feature","properties":{"name":"Casals Village","placeType":"neighbourhood","source":"OpenStreetMap contributors (ODbL)"},"geometry":{"type":"Point","coordinates":[123.9152736,10.3229955]}},{"type":"Feature","properties":{"name":"Basak","placeType":"suburb","source":"OpenStreetMap contributors (ODbL)"},"geometry":{"type":"Point","coordinates":[123.9500297,10.3546385]}},{"type":"Feature","properties":{"name":"Umapad","placeType":"suburb","source":"OpenStreetMap contributors (ODbL)"},"geometry":{"type":"Point","coordinates":[123.9543881,10.3344078]}},{"type":"Feature","properties":{"name":"Plaza Ville","placeType":"neighbourhood","source":"OpenStreetMap contributors (ODbL)"},"geometry":{"type":"Point","coordinates":[123.8873552,10.3483636]}},{"type":"Feature","properties":{"name":"Inayawan","placeType":"suburb","source":"OpenStreetMap contributors (ODbL)"},"geometry":{"type":"Point","coordinates":[123.8563842,10.2702421]}},{"type":"Feature","properties":{"name":"Tangke","placeType":"suburb","source":"OpenStreetMap contributors (ODbL)"},"geometry":{"type":"Point","coordinates":[123.8613078,10.2509649]}},{"type":"Feature","properties":{"name":"Cansojong","placeType":"suburb","source":"OpenStreetMap contributors (ODbL)"},"geometry":{"type":"Point","coordinates":[123.8548827,10.2495232]}},{"type":"Feature","properties":{"name":"Capitol Site","placeType":"suburb","source":"OpenStreetMap contributors (ODbL)"},"geometry":{"type":"Point","coordinates":[123.8902409,10.3246868]}},{"type":"Feature","properties":{"name":"Camputhaw","placeType":"suburb","source":"OpenStreetMap contributors (ODbL)"},"geometry":{"type":"Point","coordinates":[123.8971524,10.3182394]}},{"type":"Feature","properties":{"name":"La Aldea del Mar","placeType":"neighbourhood","source":"OpenStreetMap contributors (ODbL)"},"geometry":{"type":"Point","coordinates":[123.9410308,10.2727283]}},{"type":"Feature","properties":{"name":"Ibabao Bliss Housing","placeType":"neighbourhood","source":"OpenStreetMap contributors (ODbL)"},"geometry":{"type":"Point","coordinates":[123.9505524,10.2745771]}},{"type":"Feature","properties":{"name":"Colinwood Subdivision","placeType":"neighbourhood","source":"OpenStreetMap contributors (ODbL)"},"geometry":{"type":"Point","coordinates":[123.9686684,10.2857726]}},{"type":"Feature","properties":{"name":"Radco","placeType":"neighbourhood","source":"OpenStreetMap contributors (ODbL)"},"geometry":{"type":"Point","coordinates":[123.9418691,10.3050272]}},{"type":"Feature","properties":{"name":"Milagrosa Village","placeType":"neighbourhood","source":"OpenStreetMap contributors (ODbL)"},"geometry":{"type":"Point","coordinates":[123.9801837,10.4084216]}},{"type":"Feature","properties":{"name":"Buagsong","placeType":"suburb","source":"OpenStreetMap contributors (ODbL)"},"geometry":{"type":"Point","coordinates":[123.9406878,10.251111]}},{"type":"Feature","properties":{"name":"Catarman","placeType":"suburb","source":"OpenStreetMap contributors (ODbL)"},"geometry":{"type":"Point","coordinates":[123.948626,10.2488459]}},{"type":"Feature","properties":{"name":"Aguila Village","placeType":"neighbourhood","source":"OpenStreetMap contributors (ODbL)"},"geometry":{"type":"Point","coordinates":[123.866691,10.2918113]}},{"type":"Feature","properties":{"name":"Bamboo Village","placeType":"neighbourhood","source":"OpenStreetMap contributors (ODbL)"},"geometry":{"type":"Point","coordinates":[123.8629295,10.288766]}},{"type":"Feature","properties":{"name":"Abing Compound","placeType":"neighbourhood","source":"OpenStreetMap contributors (ODbL)"},"geometry":{"type":"Point","coordinates":[124.0003278,10.3133401]}},{"type":"Feature","properties":{"name":"Deca Homes 2","placeType":"neighbourhood","source":"OpenStreetMap contributors (ODbL)"},"geometry":{"type":"Point","coordinates":[123.9909833,10.3101462]}},{"type":"Feature","properties":{"name":"Bayanihan Village","placeType":"neighbourhood","source":"OpenStreetMap contributors (ODbL)"},"geometry":{"type":"Point","coordinates":[123.9921223,10.3104604]}},{"type":"Feature","properties":{"name":"Babaw","placeType":"neighbourhood","source":"OpenStreetMap contributors (ODbL)"},"geometry":{"type":"Point","coordinates":[123.974163,10.4025896]}},{"type":"Feature","properties":{"name":"Deca Homes 3","placeType":"neighbourhood","source":"OpenStreetMap contributors (ODbL)"},"geometry":{"type":"Point","coordinates":[123.97116,10.286187]}},{"type":"Feature","properties":{"name":"Vista Bella","placeType":"neighbourhood","source":"OpenStreetMap contributors (ODbL)"},"geometry":{"type":"Point","coordinates":[123.9728096,10.2897907]}},{"type":"Feature","properties":{"name":"Grant Ville 2 Subdivision","placeType":"neighbourhood","source":"OpenStreetMap contributors (ODbL)"},"geometry":{"type":"Point","coordinates":[123.9621908,10.273086]}},{"type":"Feature","properties":{"name":"Fatima Village","placeType":"neighbourhood","source":"OpenStreetMap contributors (ODbL)"},"geometry":{"type":"Point","coordinates":[123.9519455,10.2737156]}},{"type":"Feature","properties":{"name":"Bankal","placeType":"suburb","source":"OpenStreetMap contributors (ODbL)"},"geometry":{"type":"Point","coordinates":[123.9896733,10.3080757]}},{"type":"Feature","properties":{"name":"BF Better Living - Sudtungan","placeType":"neighbourhood","source":"OpenStreetMap contributors (ODbL)"},"geometry":{"type":"Point","coordinates":[123.965896,10.282686]}},{"type":"Feature","properties":{"name":"St. Frances Village","placeType":"neighbourhood","source":"OpenStreetMap contributors (ODbL)"},"geometry":{"type":"Point","coordinates":[123.9455,10.287376]}},{"type":"Feature","properties":{"name":"Santo Niño Village","placeType":"neighbourhood","source":"OpenStreetMap contributors (ODbL)"},"geometry":{"type":"Point","coordinates":[123.9620244,10.2986333]}},{"type":"Feature","properties":{"name":"White Sands Subdivision","placeType":"neighbourhood","source":"OpenStreetMap contributors (ODbL)"},"geometry":{"type":"Point","coordinates":[123.998842,10.2881279]}},{"type":"Feature","properties":{"name":"Pacific Grande 2","placeType":"neighbourhood","source":"OpenStreetMap contributors (ODbL)"},"geometry":{"type":"Point","coordinates":[123.9599203,10.3016419]}},{"type":"Feature","properties":{"name":"Camella Homes - Phase 1","placeType":"neighbourhood","source":"OpenStreetMap contributors (ODbL)"},"geometry":{"type":"Point","coordinates":[123.9820326,10.3013025]}},{"type":"Feature","properties":{"name":"Patville","placeType":"neighbourhood","source":"OpenStreetMap contributors (ODbL)"},"geometry":{"type":"Point","coordinates":[123.9158842,10.3262226]}},{"type":"Feature","properties":{"name":"The Corinthian Valley Residences","placeType":"neighbourhood","source":"OpenStreetMap contributors (ODbL)"},"geometry":{"type":"Point","coordinates":[123.8787931,10.3046838]}},{"type":"Feature","properties":{"name":"Gun-ob","placeType":"suburb","source":"OpenStreetMap contributors (ODbL)"},"geometry":{"type":"Point","coordinates":[123.950682,10.3018362]}},{"type":"Feature","properties":{"name":"Sunrise Village","placeType":"neighbourhood","source":"OpenStreetMap contributors (ODbL)"},"geometry":{"type":"Point","coordinates":[123.9516054,10.3014872]}},{"type":"Feature","properties":{"name":"Sambag Ⅱ","placeType":"quarter","source":"OpenStreetMap contributors (ODbL)"},"geometry":{"type":"Point","coordinates":[123.8912229,10.3058273]}},{"type":"Feature","properties":{"name":"Windfields Subdivision","placeType":"neighbourhood","source":"OpenStreetMap contributors (ODbL)"},"geometry":{"type":"Point","coordinates":[123.9501832,10.3897756]}},{"type":"Feature","properties":{"name":"Aspen Heights","placeType":"neighbourhood","source":"OpenStreetMap contributors (ODbL)"},"geometry":{"type":"Point","coordinates":[123.9520586,10.392342]}},{"type":"Feature","properties":{"name":"Malipayon Homes","placeType":"neighbourhood","source":"OpenStreetMap contributors (ODbL)"},"geometry":{"type":"Point","coordinates":[123.9720247,10.2655743]}},{"type":"Feature","properties":{"name":"San Nicolas Proper","placeType":"quarter","source":"OpenStreetMap contributors (ODbL)"},"geometry":{"type":"Point","coordinates":[123.890545,10.2949345]}},{"type":"Feature","properties":{"name":"Pasil","placeType":"quarter","source":"OpenStreetMap contributors (ODbL)"},"geometry":{"type":"Point","coordinates":[123.8946731,10.2901866]}},{"type":"Feature","properties":{"name":"Sawang Calero","placeType":"quarter","source":"OpenStreetMap contributors (ODbL)"},"geometry":{"type":"Point","coordinates":[123.8907892,10.291174]}},{"type":"Feature","properties":{"name":"Suba","placeType":"quarter","source":"OpenStreetMap contributors (ODbL)"},"geometry":{"type":"Point","coordinates":[123.893812,10.2900261]}},{"type":"Feature","properties":{"name":"Pahina San Nicolas","placeType":"quarter","source":"OpenStreetMap contributors (ODbL)"},"geometry":{"type":"Point","coordinates":[123.8928115,10.2940135]}},{"type":"Feature","properties":{"name":"San Antonio","placeType":"quarter","source":"OpenStreetMap contributors (ODbL)"},"geometry":{"type":"Point","coordinates":[123.8983449,10.3018656]}},{"type":"Feature","properties":{"name":"Kalubihan","placeType":"quarter","source":"OpenStreetMap contributors (ODbL)"},"geometry":{"type":"Point","coordinates":[123.8990986,10.2977029]}},{"type":"Feature","properties":{"name":"Kamagayan","placeType":"quarter","source":"OpenStreetMap contributors (ODbL)"},"geometry":{"type":"Point","coordinates":[123.8995491,10.2997569]}},{"type":"Feature","properties":{"name":"Ermita","placeType":"quarter","source":"OpenStreetMap contributors (ODbL)"},"geometry":{"type":"Point","coordinates":[123.8974115,10.2916595]}},{"type":"Feature","properties":{"name":"Señor Santo Niño","placeType":"quarter","source":"OpenStreetMap contributors (ODbL)"},"geometry":{"type":"Point","coordinates":[123.9028269,10.2951153]}},{"type":"Feature","properties":{"name":"San Roque","placeType":"quarter","source":"OpenStreetMap contributors (ODbL)"},"geometry":{"type":"Point","coordinates":[123.9060166,10.2939163]}},{"type":"Feature","properties":{"name":"Cogon Pardo","placeType":"suburb","source":"OpenStreetMap contributors (ODbL)"},"geometry":{"type":"Point","coordinates":[123.8621163,10.2773977]}},{"type":"Feature","properties":{"name":"Mambaling","placeType":"suburb","source":"OpenStreetMap contributors (ODbL)"},"geometry":{"type":"Point","coordinates":[123.8772574,10.2911211]}},{"type":"Feature","properties":{"name":"Pari-an","placeType":"quarter","source":"OpenStreetMap contributors (ODbL)"},"geometry":{"type":"Point","coordinates":[123.9026574,10.2988566]}},{"type":"Feature","properties":{"name":"Santa Cruz","placeType":"quarter","source":"OpenStreetMap contributors (ODbL)"},"geometry":{"type":"Point","coordinates":[123.8958777,10.3060662]}},{"type":"Feature","properties":{"name":"Cogon Ramos","placeType":"quarter","source":"OpenStreetMap contributors (ODbL)"},"geometry":{"type":"Point","coordinates":[123.8983895,10.3049369]}},{"type":"Feature","properties":{"name":"Tejero","placeType":"quarter","source":"OpenStreetMap contributors (ODbL)"},"geometry":{"type":"Point","coordinates":[123.9074242,10.3019728]}},{"type":"Feature","properties":{"name":"Carreta","placeType":"suburb","source":"OpenStreetMap contributors (ODbL)"},"geometry":{"type":"Point","coordinates":[123.9149237,10.3082007]}},{"type":"Feature","properties":{"name":"Tinago","placeType":"quarter","source":"OpenStreetMap contributors (ODbL)"},"geometry":{"type":"Point","coordinates":[123.9081484,10.2985884]}},{"type":"Feature","properties":{"name":"Kang-maya","placeType":"neighbourhood","source":"OpenStreetMap contributors (ODbL)"},"geometry":{"type":"Point","coordinates":[123.8823026,10.3722631]}},{"type":"Feature","properties":{"name":"Luz","placeType":"suburb","source":"OpenStreetMap contributors (ODbL)"},"geometry":{"type":"Point","coordinates":[123.9077997,10.3211047]}},{"type":"Feature","properties":{"name":"Hipodromo","placeType":"suburb","source":"OpenStreetMap contributors (ODbL)"},"geometry":{"type":"Point","coordinates":[123.9070131,10.3140702]}},{"type":"Feature","properties":{"name":"Kasambagan","placeType":"suburb","source":"OpenStreetMap contributors (ODbL)"},"geometry":{"type":"Point","coordinates":[123.9113295,10.3250945]}},{"type":"Feature","properties":{"name":"Clarita Village","placeType":"neighbourhood","source":"OpenStreetMap contributors (ODbL)"},"geometry":{"type":"Point","coordinates":[123.8662174,10.2959115]}},{"type":"Feature","properties":{"name":"Bamboo","placeType":"neighbourhood","source":"OpenStreetMap contributors (ODbL)"},"geometry":{"type":"Point","coordinates":[123.8697289,10.2875637]}},{"type":"Feature","properties":{"name":"Cabreros","placeType":"neighbourhood","source":"OpenStreetMap contributors (ODbL)"},"geometry":{"type":"Point","coordinates":[123.8699642,10.288275]}},{"type":"Feature","properties":{"name":"The Peaks","placeType":"neighbourhood","source":"OpenStreetMap contributors (ODbL)"},"geometry":{"type":"Point","coordinates":[123.8661745,10.32382]}},{"type":"Feature","properties":{"name":"OPRRA","placeType":"neighbourhood","source":"OpenStreetMap contributors (ODbL)"},"geometry":{"type":"Point","coordinates":[123.8874015,10.3292005]}},{"type":"Feature","properties":{"name":"Banawa","placeType":"quarter","source":"OpenStreetMap contributors (ODbL)"},"geometry":{"type":"Point","coordinates":[123.8780487,10.3180226]}},{"type":"Feature","properties":{"name":"Tabok","placeType":"suburb","source":"OpenStreetMap contributors (ODbL)"},"geometry":{"type":"Point","coordinates":[123.9439345,10.3486632]}},{"type":"Feature","properties":{"name":"Tingub","placeType":"suburb","source":"OpenStreetMap contributors (ODbL)"},"geometry":{"type":"Point","coordinates":[123.9353755,10.354497]}},{"type":"Feature","properties":{"name":"Pagsabungan","placeType":"suburb","source":"OpenStreetMap contributors (ODbL)"},"geometry":{"type":"Point","coordinates":[123.9406626,10.3565067]}},{"type":"Feature","properties":{"name":"Banilad","placeType":"suburb","source":"OpenStreetMap contributors (ODbL)"},"geometry":{"type":"Point","coordinates":[123.9196727,10.3413827]}},{"type":"Feature","properties":{"name":"Nivel Hills","placeType":"neighbourhood","source":"OpenStreetMap contributors (ODbL)"},"geometry":{"type":"Point","coordinates":[123.8954213,10.3423411]}},{"type":"Feature","properties":{"name":"Bulacao","placeType":"suburb","source":"OpenStreetMap contributors (ODbL)"},"geometry":{"type":"Point","coordinates":[123.8513835,10.2754986]}},{"type":"Feature","properties":{"name":"Purok 3","placeType":"neighbourhood","source":"OpenStreetMap contributors (ODbL)"},"geometry":{"type":"Point","coordinates":[123.9123059,10.3763961]}},{"type":"Feature","properties":{"name":"Purok 2","placeType":"neighbourhood","source":"OpenStreetMap contributors (ODbL)"},"geometry":{"type":"Point","coordinates":[123.9105638,10.37473]}},{"type":"Feature","properties":{"name":"Duljo Fatima","placeType":"suburb","source":"OpenStreetMap contributors (ODbL)"},"geometry":{"type":"Point","coordinates":[123.8849138,10.2917103]}},{"type":"Feature","properties":{"name":"Villa Isidra Village","placeType":"neighbourhood","source":"OpenStreetMap contributors (ODbL)"},"geometry":{"type":"Point","coordinates":[123.8685758,10.2998814]}},{"type":"Feature","properties":{"name":"Santa Teresita Village","placeType":"neighbourhood","source":"OpenStreetMap contributors (ODbL)"},"geometry":{"type":"Point","coordinates":[123.8721462,10.3033046]}},{"type":"Feature","properties":{"name":"Babag","placeType":"suburb","source":"OpenStreetMap contributors (ODbL)"},"geometry":{"type":"Point","coordinates":[123.9447698,10.2775255]}},{"type":"Feature","properties":{"name":"Poblacion","placeType":"suburb","source":"OpenStreetMap contributors (ODbL)"},"geometry":{"type":"Point","coordinates":[123.9489619,10.3131666]}},{"type":"Feature","properties":{"name":"Poblacion","placeType":"suburb","source":"OpenStreetMap contributors (ODbL)"},"geometry":{"type":"Point","coordinates":[123.9493259,10.2510713]}},{"type":"Feature","properties":{"name":"Marian Village","placeType":"neighbourhood","source":"OpenStreetMap contributors (ODbL)"},"geometry":{"type":"Point","coordinates":[123.9783785,10.3642003]}},{"type":"Feature","properties":{"name":"Palmyra Subdivision","placeType":"neighbourhood","source":"OpenStreetMap contributors (ODbL)"},"geometry":{"type":"Point","coordinates":[123.9428106,10.3057826]}},{"type":"Feature","properties":{"name":"Manggapar","placeType":"hamlet","source":"OpenStreetMap contributors (ODbL)"},"geometry":{"type":"Point","coordinates":[123.8444408,10.3472154]}},{"type":"Feature","properties":{"name":"Apas","placeType":"suburb","source":"OpenStreetMap contributors (ODbL)"},"geometry":{"type":"Point","coordinates":[123.9055677,10.337504]}},{"type":"Feature","properties":{"name":"Quiot Pardo","placeType":"suburb","source":"OpenStreetMap contributors (ODbL)"},"geometry":{"type":"Point","coordinates":[123.8586203,10.2889855]}},{"type":"Feature","properties":{"name":"Kinasang-an Pardo","placeType":"suburb","source":"OpenStreetMap contributors (ODbL)"},"geometry":{"type":"Point","coordinates":[123.8590937,10.2822739]}},{"type":"Feature","properties":{"name":"Basak Pardo","placeType":"suburb","source":"OpenStreetMap contributors (ODbL)"},"geometry":{"type":"Point","coordinates":[123.8645696,10.2864551]}},{"type":"Feature","properties":{"name":"Alumnos","placeType":"neighbourhood","source":"OpenStreetMap contributors (ODbL)"},"geometry":{"type":"Point","coordinates":[123.8727529,10.2840299]}},{"type":"Feature","properties":{"name":"Sapangdaku","placeType":"suburb","source":"OpenStreetMap contributors (ODbL)"},"geometry":{"type":"Point","coordinates":[123.8726559,10.335043]}},{"type":"Feature","properties":{"name":"Poblacion","placeType":"suburb","source":"OpenStreetMap contributors (ODbL)"},"geometry":{"type":"Point","coordinates":[123.8464893,10.2446342]}},{"type":"Feature","properties":{"name":"Portbreeze Subdivision","placeType":"neighbourhood","source":"OpenStreetMap contributors (ODbL)"},"geometry":{"type":"Point","coordinates":[123.986323,10.3070522]}},{"type":"Feature","properties":{"name":"Myrrh Residences","placeType":"neighbourhood","source":"OpenStreetMap contributors (ODbL)"},"geometry":{"type":"Point","coordinates":[123.9315075,10.3700529]}},{"type":"Feature","properties":{"name":"Upper Calvary Hills","placeType":"neighbourhood","source":"OpenStreetMap contributors (ODbL)"},"geometry":{"type":"Point","coordinates":[123.9049451,10.3433476]}},{"type":"Feature","properties":{"name":"Lower Calvary Hills","placeType":"neighbourhood","source":"OpenStreetMap contributors (ODbL)"},"geometry":{"type":"Point","coordinates":[123.9058897,10.3429391]}},{"type":"Feature","properties":{"name":"Babag Ⅰ","placeType":"village","source":"OpenStreetMap contributors (ODbL)"},"geometry":{"type":"Point","coordinates":[123.8608768,10.3665102]}},{"type":"Feature","properties":{"name":"Nasipit","placeType":"neighbourhood","source":"OpenStreetMap contributors (ODbL)"},"geometry":{"type":"Point","coordinates":[123.9158126,10.3529742]}},{"type":"Feature","properties":{"name":"Baksan","placeType":"hamlet","source":"OpenStreetMap contributors (ODbL)"},"geometry":{"type":"Point","coordinates":[123.8579994,10.329433]}},{"type":"Feature","properties":{"name":"Bihag Compound","placeType":"neighbourhood","source":"OpenStreetMap contributors (ODbL)"},"geometry":{"type":"Point","coordinates":[123.9428235,10.3667467]}},{"type":"Feature","properties":{"name":"Upper Casili","placeType":"neighbourhood","source":"OpenStreetMap contributors (ODbL)"},"geometry":{"type":"Point","coordinates":[123.9344206,10.379541]}},{"type":"Feature","properties":{"name":"Casili Hills","placeType":"neighbourhood","source":"OpenStreetMap contributors (ODbL)"},"geometry":{"type":"Point","coordinates":[123.9363587,10.3770411]}},{"type":"Feature","properties":{"name":"Santa Cruz","placeType":"village","source":"OpenStreetMap contributors (ODbL)"},"geometry":{"type":"Point","coordinates":[123.9636827,10.4125584]}},{"type":"Feature","properties":{"name":"San Roque Homes","placeType":"neighbourhood","source":"OpenStreetMap contributors (ODbL)"},"geometry":{"type":"Point","coordinates":[123.8582137,10.2864479]}},{"type":"Feature","properties":{"name":"Laray","placeType":"neighbourhood","source":"OpenStreetMap contributors (ODbL)"},"geometry":{"type":"Point","coordinates":[123.8602525,10.2570319]}},{"type":"Feature","properties":{"name":"Purok 4","placeType":"neighbourhood","source":"OpenStreetMap contributors (ODbL)"},"geometry":{"type":"Point","coordinates":[123.8970313,10.3191606]}},{"type":"Feature","properties":{"name":"Riverside","placeType":"neighbourhood","source":"OpenStreetMap contributors (ODbL)"},"geometry":{"type":"Point","coordinates":[123.8719627,10.3335016]}},{"type":"Feature","properties":{"name":"Purok 4","placeType":"neighbourhood","source":"OpenStreetMap contributors (ODbL)"},"geometry":{"type":"Point","coordinates":[123.9135879,10.3800554]}},{"type":"Feature","properties":{"name":"Purok 8","placeType":"neighbourhood","source":"OpenStreetMap contributors (ODbL)"},"geometry":{"type":"Point","coordinates":[123.8962025,10.3220039]}},{"type":"Feature","properties":{"name":"Mantuyong","placeType":"suburb","source":"OpenStreetMap contributors (ODbL)"},"geometry":{"type":"Point","coordinates":[123.9404936,10.3293593]}},{"type":"Feature","properties":{"name":"Poblacion Oriental","placeType":"quarter","source":"OpenStreetMap contributors (ODbL)"},"geometry":{"type":"Point","coordinates":[123.957203,10.3753084]}},{"type":"Feature","properties":{"name":"Capanasan","placeType":"neighbourhood","source":"OpenStreetMap contributors (ODbL)"},"geometry":{"type":"Point","coordinates":[123.9276749,10.3843849]}},{"type":"Feature","properties":{"name":"Jugan","placeType":"suburb","source":"OpenStreetMap contributors (ODbL)"},"geometry":{"type":"Point","coordinates":[123.972291,10.3784898]}},{"type":"Feature","properties":{"name":"Tiguib","placeType":"neighbourhood","source":"OpenStreetMap contributors (ODbL)"},"geometry":{"type":"Point","coordinates":[123.8684235,10.3789685]}},{"type":"Feature","properties":{"name":"Villa Iluminada","placeType":"neighbourhood","source":"OpenStreetMap contributors (ODbL)"},"geometry":{"type":"Point","coordinates":[123.9851894,10.2937034]}},{"type":"Feature","properties":{"name":"Centro","placeType":"suburb","source":"OpenStreetMap contributors (ODbL)"},"geometry":{"type":"Point","coordinates":[123.9427006,10.3257279]}},{"type":"Feature","properties":{"name":"Ibabao-Estancia","placeType":"suburb","source":"OpenStreetMap contributors (ODbL)"},"geometry":{"type":"Point","coordinates":[123.944774,10.3350548]}},{"type":"Feature","properties":{"name":"Alang-alang","placeType":"suburb","source":"OpenStreetMap contributors (ODbL)"},"geometry":{"type":"Point","coordinates":[123.9458976,10.3316796]}},{"type":"Feature","properties":{"name":"Bakilid","placeType":"suburb","source":"OpenStreetMap contributors (ODbL)"},"geometry":{"type":"Point","coordinates":[123.934233,10.3366996]}},{"type":"Feature","properties":{"name":"Subangdaku","placeType":"suburb","source":"OpenStreetMap contributors (ODbL)"},"geometry":{"type":"Point","coordinates":[123.9245216,10.323182]}},{"type":"Feature","properties":{"name":"Casuntingan","placeType":"suburb","source":"OpenStreetMap contributors (ODbL)"},"geometry":{"type":"Point","coordinates":[123.9305388,10.3452982]}},{"type":"Feature","properties":{"name":"Casili","placeType":"suburb","source":"OpenStreetMap contributors (ODbL)"},"geometry":{"type":"Point","coordinates":[123.9338842,10.3796543]}},{"type":"Feature","properties":{"name":"Tawason","placeType":"suburb","source":"OpenStreetMap contributors (ODbL)"},"geometry":{"type":"Point","coordinates":[123.9287209,10.3778023]}},{"type":"Feature","properties":{"name":"Jagobiao","placeType":"suburb","source":"OpenStreetMap contributors (ODbL)"},"geometry":{"type":"Point","coordinates":[123.9519287,10.3668886]}},{"type":"Feature","properties":{"name":"Cubacub","placeType":"suburb","source":"OpenStreetMap contributors (ODbL)"},"geometry":{"type":"Point","coordinates":[123.9400479,10.3713621]}},{"type":"Feature","properties":{"name":"Poblacion","placeType":"suburb","source":"OpenStreetMap contributors (ODbL)"},"geometry":{"type":"Point","coordinates":[124.0002957,10.3989386]}},{"type":"Feature","properties":{"name":"Tugop","placeType":"neighbourhood","source":"OpenStreetMap contributors (ODbL)"},"geometry":{"type":"Point","coordinates":[123.8525588,10.3756398]}},{"type":"Feature","properties":{"name":"Englis","placeType":"neighbourhood","source":"OpenStreetMap contributors (ODbL)"},"geometry":{"type":"Point","coordinates":[123.8863766,10.3133174]}},{"type":"Feature","properties":{"name":"Banawa","placeType":"neighbourhood","source":"OpenStreetMap contributors (ODbL)"},"geometry":{"type":"Point","coordinates":[123.876716,10.3124117]}},{"type":"Feature","properties":{"name":"Santa Ana","placeType":"neighbourhood","source":"OpenStreetMap contributors (ODbL)"},"geometry":{"type":"Point","coordinates":[123.8713458,10.3098965]}},{"type":"Feature","properties":{"name":"Bamboo Bay Community","placeType":"neighbourhood","source":"OpenStreetMap contributors (ODbL)"},"geometry":{"type":"Point","coordinates":[123.9203766,10.3280407]}},{"type":"Feature","properties":{"name":"Park Place","placeType":"neighbourhood","source":"OpenStreetMap contributors (ODbL)"},"geometry":{"type":"Point","coordinates":[123.9435616,10.2708737]}},{"type":"Feature","properties":{"name":"Garden Bloom Villas","placeType":"neighbourhood","source":"OpenStreetMap contributors (ODbL)"},"geometry":{"type":"Point","coordinates":[123.9989816,10.4249025]}},{"type":"Feature","properties":{"name":"San Roque Ville","placeType":"neighbourhood","source":"OpenStreetMap contributors (ODbL)"},"geometry":{"type":"Point","coordinates":[123.8990472,10.3692811]}},{"type":"Feature","properties":{"name":"Saint Vincent Ville","placeType":"neighbourhood","source":"OpenStreetMap contributors (ODbL)"},"geometry":{"type":"Point","coordinates":[123.8963676,10.3732755]}},{"type":"Feature","properties":{"name":"Bulacao","placeType":"suburb","source":"OpenStreetMap contributors (ODbL)"},"geometry":{"type":"Point","coordinates":[123.8451143,10.2710678]}},{"type":"Feature","properties":{"name":"Candulawan","placeType":"suburb","source":"OpenStreetMap contributors (ODbL)"},"geometry":{"type":"Point","coordinates":[123.8434834,10.2788736]}},{"type":"Feature","properties":{"name":"Lower Casili","placeType":"neighbourhood","source":"OpenStreetMap contributors (ODbL)"},"geometry":{"type":"Point","coordinates":[123.9385928,10.3785239]}},{"type":"Feature","properties":{"name":"Villa Vanesa","placeType":"neighbourhood","source":"OpenStreetMap contributors (ODbL)"},"geometry":{"type":"Point","coordinates":[123.9368802,10.3795753]}},{"type":"Feature","properties":{"name":"ABPI Subdivision","placeType":"neighbourhood","source":"OpenStreetMap contributors (ODbL)"},"geometry":{"type":"Point","coordinates":[123.9420046,10.3745954]}},{"type":"Feature","properties":{"name":"San Jose","placeType":"neighbourhood","source":"OpenStreetMap contributors (ODbL)"},"geometry":{"type":"Point","coordinates":[123.956404,10.364613]}},{"type":"Feature","properties":{"name":"Locatha","placeType":"neighbourhood","source":"OpenStreetMap contributors (ODbL)"},"geometry":{"type":"Point","coordinates":[123.9450167,10.3040734]}},{"type":"Feature","properties":{"name":"Saging","placeType":"neighbourhood","source":"OpenStreetMap contributors (ODbL)"},"geometry":{"type":"Point","coordinates":[123.9451548,10.2952183]}},{"type":"Feature","properties":{"name":"Zapatera","placeType":"quarter","source":"OpenStreetMap contributors (ODbL)"},"geometry":{"type":"Point","coordinates":[123.9012713,10.3063692]}},{"type":"Feature","properties":{"name":"T. Padilla","placeType":"quarter","source":"OpenStreetMap contributors (ODbL)"},"geometry":{"type":"Point","coordinates":[123.9042914,10.3018092]}},{"type":"Feature","properties":{"name":"Pahina Central","placeType":"quarter","source":"OpenStreetMap contributors (ODbL)"},"geometry":{"type":"Point","coordinates":[123.8923973,10.2965682]}},{"type":"Feature","properties":{"name":"Lorega","placeType":"quarter","source":"OpenStreetMap contributors (ODbL)"},"geometry":{"type":"Point","coordinates":[123.9042216,10.306554]}},{"type":"Feature","properties":{"name":"Calamba","placeType":"suburb","source":"OpenStreetMap contributors (ODbL)"},"geometry":{"type":"Point","coordinates":[123.8845396,10.3016086]}},{"type":"Feature","properties":{"name":"Upper Inayawan","placeType":"neighbourhood","source":"OpenStreetMap contributors (ODbL)"},"geometry":{"type":"Point","coordinates":[123.8541462,10.2698575]}},{"type":"Feature","properties":{"name":"Silayon","placeType":"neighbourhood","source":"OpenStreetMap contributors (ODbL)"},"geometry":{"type":"Point","coordinates":[123.8580643,10.2702222]}},{"type":"Feature","properties":{"name":"San Roque","placeType":"suburb","source":"OpenStreetMap contributors (ODbL)"},"geometry":{"type":"Point","coordinates":[123.860595,10.2556475]}},{"type":"Feature","properties":{"name":"Kalinao","placeType":"neighbourhood","source":"OpenStreetMap contributors (ODbL)"},"geometry":{"type":"Point","coordinates":[123.8691437,10.2596541]}},{"type":"Feature","properties":{"name":"Bantayan","placeType":"neighbourhood","source":"OpenStreetMap contributors (ODbL)"},"geometry":{"type":"Point","coordinates":[123.9523606,10.2488287]}},{"type":"Feature","properties":{"name":"Puti","placeType":"hamlet","source":"OpenStreetMap contributors (ODbL)"},"geometry":{"type":"Point","coordinates":[123.8544703,10.3116231]}},{"type":"Feature","properties":{"name":"Dulhogan","placeType":"hamlet","source":"OpenStreetMap contributors (ODbL)"},"geometry":{"type":"Point","coordinates":[123.8509162,10.3067737]}},{"type":"Feature","properties":{"name":"Nalupi","placeType":"neighbourhood","source":"OpenStreetMap contributors (ODbL)"},"geometry":{"type":"Point","coordinates":[123.8602146,10.2793982]}},{"type":"Feature","properties":{"name":"Orchids","placeType":"neighbourhood","source":"OpenStreetMap contributors (ODbL)"},"geometry":{"type":"Point","coordinates":[123.9786672,10.3930591]}},{"type":"Feature","properties":{"name":"Panaghi-usa","placeType":"neighbourhood","source":"OpenStreetMap contributors (ODbL)"},"geometry":{"type":"Point","coordinates":[123.8708885,10.2843083]}},{"type":"Feature","properties":{"name":"Matumbo","placeType":"neighbourhood","source":"OpenStreetMap contributors (ODbL)"},"geometry":{"type":"Point","coordinates":[123.9708892,10.318358]}},{"type":"Feature","properties":{"name":"Woodberry Drive","placeType":"neighbourhood","source":"OpenStreetMap contributors (ODbL)"},"geometry":{"type":"Point","coordinates":[123.8740615,10.3065055]}},{"type":"Feature","properties":{"name":"Sacred Heart Village","placeType":"neighbourhood","source":"OpenStreetMap contributors (ODbL)"},"geometry":{"type":"Point","coordinates":[123.8747148,10.3069626]}},{"type":"Feature","properties":{"name":"Taptap","placeType":"village","source":"OpenStreetMap contributors (ODbL)"},"geometry":{"type":"Point","coordinates":[123.8479649,10.4299251]}},{"type":"Feature","properties":{"name":"Malubog","placeType":"village","source":"OpenStreetMap contributors (ODbL)"},"geometry":{"type":"Point","coordinates":[123.8692672,10.3803941]}},{"type":"Feature","properties":{"name":"Binaliw","placeType":"village","source":"OpenStreetMap contributors (ODbL)"},"geometry":{"type":"Point","coordinates":[123.916084,10.4227922]}},{"type":"Feature","properties":{"name":"Panagdait","placeType":"neighbourhood","source":"OpenStreetMap contributors (ODbL)"},"geometry":{"type":"Point","coordinates":[123.9176635,10.3256482]}},{"type":"Feature","properties":{"name":"White Hills","placeType":"neighbourhood","source":"OpenStreetMap contributors (ODbL)"},"geometry":{"type":"Point","coordinates":[123.8740538,10.317611]}},{"type":"Feature","properties":{"name":"Forest Hills","placeType":"neighbourhood","source":"OpenStreetMap contributors (ODbL)"},"geometry":{"type":"Point","coordinates":[123.8736181,10.3173171]}},{"type":"Feature","properties":{"name":"Abuno","placeType":"neighbourhood","source":"OpenStreetMap contributors (ODbL)"},"geometry":{"type":"Point","coordinates":[123.9883282,10.2931504]}},{"type":"Feature","properties":{"name":"Buyong","placeType":"neighbourhood","source":"OpenStreetMap contributors (ODbL)"},"geometry":{"type":"Point","coordinates":[124.0019806,10.290335]}},{"type":"Feature","properties":{"name":"Soong","placeType":"neighbourhood","source":"OpenStreetMap contributors (ODbL)"},"geometry":{"type":"Point","coordinates":[124.0036483,10.3009873]}},{"type":"Feature","properties":{"name":"Poblacion Occidental","placeType":"quarter","source":"OpenStreetMap contributors (ODbL)"},"geometry":{"type":"Point","coordinates":[123.9529404,10.3741863]}},{"type":"Feature","properties":{"name":"Casili","placeType":"suburb","source":"OpenStreetMap contributors (ODbL)"},"geometry":{"type":"Point","coordinates":[123.9480512,10.3740774]}},{"type":"Feature","properties":{"name":"Tugbongan","placeType":"suburb","source":"OpenStreetMap contributors (ODbL)"},"geometry":{"type":"Point","coordinates":[123.9657648,10.363269]}},{"type":"Feature","properties":{"name":"Nangka","placeType":"suburb","source":"OpenStreetMap contributors (ODbL)"},"geometry":{"type":"Point","coordinates":[123.9628197,10.370753]}},{"type":"Feature","properties":{"name":"Cansaga","placeType":"suburb","source":"OpenStreetMap contributors (ODbL)"},"geometry":{"type":"Point","coordinates":[123.9614677,10.3776176]}},{"type":"Feature","properties":{"name":"Pitogo","placeType":"suburb","source":"OpenStreetMap contributors (ODbL)"},"geometry":{"type":"Point","coordinates":[123.9711561,10.3826637]}},{"type":"Feature","properties":{"name":"Lamac","placeType":"suburb","source":"OpenStreetMap contributors (ODbL)"},"geometry":{"type":"Point","coordinates":[123.9680975,10.3876855]}},{"type":"Feature","properties":{"name":"Tilhaong","placeType":"suburb","source":"OpenStreetMap contributors (ODbL)"},"geometry":{"type":"Point","coordinates":[123.9633262,10.398678]}},{"type":"Feature","properties":{"name":"Danglag","placeType":"suburb","source":"OpenStreetMap contributors (ODbL)"},"geometry":{"type":"Point","coordinates":[123.9562271,10.3902251]}},{"type":"Feature","properties":{"name":"Sacsac","placeType":"village","source":"OpenStreetMap contributors (ODbL)"},"geometry":{"type":"Point","coordinates":[123.9277663,10.397449]}},{"type":"Feature","properties":{"name":"San Vicente","placeType":"suburb","source":"OpenStreetMap contributors (ODbL)"},"geometry":{"type":"Point","coordinates":[123.9736778,10.3990929]}},{"type":"Feature","properties":{"name":"Calero","placeType":"suburb","source":"OpenStreetMap contributors (ODbL)"},"geometry":{"type":"Point","coordinates":[123.9986063,10.3632562]}},{"type":"Feature","properties":{"name":"Pilit","placeType":"neighbourhood","source":"OpenStreetMap contributors (ODbL)"},"geometry":{"type":"Point","coordinates":[123.9242765,10.3555129]}},{"type":"Feature","properties":{"name":"Holy Name","placeType":"neighbourhood","source":"OpenStreetMap contributors (ODbL)"},"geometry":{"type":"Point","coordinates":[123.9178687,10.3203474]}},{"type":"Feature","properties":{"name":"Sun-oc","placeType":"neighbourhood","source":"OpenStreetMap contributors (ODbL)"},"geometry":{"type":"Point","coordinates":[123.8950177,10.3382433]}},{"type":"Feature","properties":{"name":"Upper Panabang","placeType":"neighbourhood","source":"OpenStreetMap contributors (ODbL)"},"geometry":{"type":"Point","coordinates":[123.9034224,10.3427527]}},{"type":"Feature","properties":{"name":"Lower Panabang","placeType":"neighbourhood","source":"OpenStreetMap contributors (ODbL)"},"geometry":{"type":"Point","coordinates":[123.9041358,10.341101]}},{"type":"Feature","properties":{"name":"Sitio Rotunda","placeType":"neighbourhood","source":"OpenStreetMap contributors (ODbL)"},"geometry":{"type":"Point","coordinates":[123.9031756,10.3475102]}},{"type":"Feature","properties":{"name":"Palalay Compound","placeType":"neighbourhood","source":"OpenStreetMap contributors (ODbL)"},"geometry":{"type":"Point","coordinates":[123.9485181,10.3080577]}},{"type":"Feature","properties":{"name":"Francia Ville","placeType":"neighbourhood","source":"OpenStreetMap contributors (ODbL)"},"geometry":{"type":"Point","coordinates":[123.9522875,10.2705856]}},{"type":"Feature","properties":{"name":"Lupa","placeType":"quarter","source":"OpenStreetMap contributors (ODbL)"},"geometry":{"type":"Point","coordinates":[123.9301345,10.3506105]}},{"type":"Feature","properties":{"name":"Huya","placeType":"hamlet","source":"OpenStreetMap contributors (ODbL)"},"geometry":{"type":"Point","coordinates":[123.8606908,10.3171048]}},{"type":"Feature","properties":{"name":"Riva Ridge Subdivision","placeType":"neighbourhood","source":"OpenStreetMap contributors (ODbL)"},"geometry":{"type":"Point","coordinates":[123.8706458,10.3060025]}},{"type":"Feature","properties":{"name":"Cassava","placeType":"neighbourhood","source":"OpenStreetMap contributors (ODbL)"},"geometry":{"type":"Point","coordinates":[123.9409304,10.3864361]}},{"type":"Feature","properties":{"name":"San Carlos Heights","placeType":"neighbourhood","source":"OpenStreetMap contributors (ODbL)"},"geometry":{"type":"Point","coordinates":[123.8556667,10.2923639]}},{"type":"Feature","properties":{"name":"Pailob","placeType":"neighbourhood","source":"OpenStreetMap contributors (ODbL)"},"geometry":{"type":"Point","coordinates":[123.8892643,10.3026206]}},{"type":"Feature","properties":{"name":"Lower Acacia","placeType":"neighbourhood","source":"OpenStreetMap contributors (ODbL)"},"geometry":{"type":"Point","coordinates":[123.8590814,10.2805911]}},{"type":"Feature","properties":{"name":"Rainbow Village","placeType":"neighbourhood","source":"OpenStreetMap contributors (ODbL)"},"geometry":{"type":"Point","coordinates":[123.8593818,10.2819252]}},{"type":"Feature","properties":{"name":"Purok 1","placeType":"neighbourhood","source":"OpenStreetMap contributors (ODbL)"},"geometry":{"type":"Point","coordinates":[123.9177708,10.3782574]}},{"type":"Feature","properties":{"name":"Hoyohoy","placeType":"neighbourhood","source":"OpenStreetMap contributors (ODbL)"},"geometry":{"type":"Point","coordinates":[123.8776808,10.367643]}},{"type":"Feature","properties":{"name":"Santa Monica Estate","placeType":"neighbourhood","source":"OpenStreetMap contributors (ODbL)"},"geometry":{"type":"Point","coordinates":[123.8656173,10.2994759]}},{"type":"Feature","properties":{"name":"Katugasan","placeType":"neighbourhood","source":"OpenStreetMap contributors (ODbL)"},"geometry":{"type":"Point","coordinates":[123.9504978,10.3734253]}},{"type":"Feature","properties":{"name":"San Antonio de Padua","placeType":"neighbourhood","source":"OpenStreetMap contributors (ODbL)"},"geometry":{"type":"Point","coordinates":[123.9579986,10.377115]}},{"type":"Feature","properties":{"name":"Bamboo Hills","placeType":"neighbourhood","source":"OpenStreetMap contributors (ODbL)"},"geometry":{"type":"Point","coordinates":[123.9524961,10.3719584]}},{"type":"Feature","properties":{"name":"Lower Riverside","placeType":"neighbourhood","source":"OpenStreetMap contributors (ODbL)"},"geometry":{"type":"Point","coordinates":[123.957945,10.3721892]}},{"type":"Feature","properties":{"name":"Calachuchi","placeType":"neighbourhood","source":"OpenStreetMap contributors (ODbL)"},"geometry":{"type":"Point","coordinates":[123.9824482,10.3627487]}},{"type":"Feature","properties":{"name":"West Binabag","placeType":"neighbourhood","source":"OpenStreetMap contributors (ODbL)"},"geometry":{"type":"Point","coordinates":[123.9819011,10.3620801]}},{"type":"Feature","properties":{"name":"East Binabag","placeType":"neighbourhood","source":"OpenStreetMap contributors (ODbL)"},"geometry":{"type":"Point","coordinates":[123.9814934,10.3603493]}},{"type":"Feature","properties":{"name":"Libo","placeType":"neighbourhood","source":"OpenStreetMap contributors (ODbL)"},"geometry":{"type":"Point","coordinates":[123.9859271,10.3580076]}},{"type":"Feature","properties":{"name":"Bagakay","placeType":"neighbourhood","source":"OpenStreetMap contributors (ODbL)"},"geometry":{"type":"Point","coordinates":[123.9868042,10.3562781]}},{"type":"Feature","properties":{"name":"Tawagan","placeType":"neighbourhood","source":"OpenStreetMap contributors (ODbL)"},"geometry":{"type":"Point","coordinates":[123.9837357,10.357468]}},{"type":"Feature","properties":{"name":"Yellow Bells","placeType":"neighbourhood","source":"OpenStreetMap contributors (ODbL)"},"geometry":{"type":"Point","coordinates":[123.9271177,10.4259956]}},{"type":"Feature","properties":{"name":"Bato Casili","placeType":"quarter","source":"OpenStreetMap contributors (ODbL)"},"geometry":{"type":"Point","coordinates":[123.9440041,10.3764223]}},{"type":"Feature","properties":{"name":"Langob","placeType":"neighbourhood","source":"OpenStreetMap contributors (ODbL)"},"geometry":{"type":"Point","coordinates":[123.9522278,10.313109]}},{"type":"Feature","properties":{"name":"Son-oc","placeType":"neighbourhood","source":"OpenStreetMap contributors (ODbL)"},"geometry":{"type":"Point","coordinates":[123.9171687,10.3773222]}},{"type":"Feature","properties":{"name":"Tigbao","placeType":"quarter","source":"OpenStreetMap contributors (ODbL)"},"geometry":{"type":"Point","coordinates":[123.9163801,10.3771084]}},{"type":"Feature","properties":{"name":"Laray","placeType":"neighbourhood","source":"OpenStreetMap contributors (ODbL)"},"geometry":{"type":"Point","coordinates":[123.9715666,10.3682646]}},{"type":"Feature","properties":{"name":"Pagutlan","placeType":"neighbourhood","source":"OpenStreetMap contributors (ODbL)"},"geometry":{"type":"Point","coordinates":[123.9876236,10.3710877]}},{"type":"Feature","properties":{"name":"Goldsmith Subdivision","placeType":"neighbourhood","source":"OpenStreetMap contributors (ODbL)"},"geometry":{"type":"Point","coordinates":[123.9836647,10.3703549]}},{"type":"Feature","properties":{"name":"Sun-ok","placeType":"neighbourhood","source":"OpenStreetMap contributors (ODbL)"},"geometry":{"type":"Point","coordinates":[123.9808677,10.3610157]}},{"type":"Feature","properties":{"name":"Upper Jugan","placeType":"neighbourhood","source":"OpenStreetMap contributors (ODbL)"},"geometry":{"type":"Point","coordinates":[123.9733519,10.3790952]}},{"type":"Feature","properties":{"name":"Purok Uno","placeType":"neighbourhood","source":"OpenStreetMap contributors (ODbL)"},"geometry":{"type":"Point","coordinates":[123.9582226,10.3703133]}},{"type":"Feature","properties":{"name":"Purok Singko","placeType":"neighbourhood","source":"OpenStreetMap contributors (ODbL)"},"geometry":{"type":"Point","coordinates":[123.9630492,10.3703879]}},{"type":"Feature","properties":{"name":"Andres Bonifacio","placeType":"neighbourhood","source":"OpenStreetMap contributors (ODbL)"},"geometry":{"type":"Point","coordinates":[123.955543,10.3785727]}},{"type":"Feature","properties":{"name":"Lower Cubacub","placeType":"neighbourhood","source":"OpenStreetMap contributors (ODbL)"},"geometry":{"type":"Point","coordinates":[123.9410028,10.3674784]}},{"type":"Feature","properties":{"name":"Santo Niño","placeType":"neighbourhood","source":"OpenStreetMap contributors (ODbL)"},"geometry":{"type":"Point","coordinates":[123.9576057,10.3504297]}},{"type":"Feature","properties":{"name":"Lapyahan","placeType":"neighbourhood","source":"OpenStreetMap contributors (ODbL)"},"geometry":{"type":"Point","coordinates":[123.9587443,10.3545696]}},{"type":"Feature","properties":{"name":"Green Valley","placeType":"neighbourhood","source":"OpenStreetMap contributors (ODbL)"},"geometry":{"type":"Point","coordinates":[123.8921115,10.3247885]}},{"type":"Feature","properties":{"name":"Grahe","placeType":"neighbourhood","source":"OpenStreetMap contributors (ODbL)"},"geometry":{"type":"Point","coordinates":[123.8743204,10.3707764]}},{"type":"Feature","properties":{"name":"Bayanihan","placeType":"neighbourhood","source":"OpenStreetMap contributors (ODbL)"},"geometry":{"type":"Point","coordinates":[123.8594556,10.2872153]}},{"type":"Feature","properties":{"name":"Maria Gochan Subdivision","placeType":"neighbourhood","source":"OpenStreetMap contributors (ODbL)"},"geometry":{"type":"Point","coordinates":[123.8771327,10.2931704]}},{"type":"Feature","properties":{"name":"Tisa","placeType":"neighbourhood","source":"OpenStreetMap contributors (ODbL)"},"geometry":{"type":"Point","coordinates":[123.8740495,10.3003234]}},{"type":"Feature","properties":{"name":"Naya Village","placeType":"neighbourhood","source":"OpenStreetMap contributors (ODbL)"},"geometry":{"type":"Point","coordinates":[123.8719131,10.2985817]}},{"type":"Feature","properties":{"name":"Horseshoe Hills Community","placeType":"neighbourhood","source":"OpenStreetMap contributors (ODbL)"},"geometry":{"type":"Point","coordinates":[123.8834453,10.3107393]}},{"type":"Feature","properties":{"name":"Laguna","placeType":"neighbourhood","source":"OpenStreetMap contributors (ODbL)"},"geometry":{"type":"Point","coordinates":[123.889723,10.2981779]}},{"type":"Feature","properties":{"name":"Kabulihan","placeType":"neighbourhood","source":"OpenStreetMap contributors (ODbL)"},"geometry":{"type":"Point","coordinates":[123.8915375,10.2994657]}},{"type":"Feature","properties":{"name":"N. L. Arriola Subdivision","placeType":"neighbourhood","source":"OpenStreetMap contributors (ODbL)"},"geometry":{"type":"Point","coordinates":[123.8912103,10.2985969]}},{"type":"Feature","properties":{"name":"Admeral","placeType":"neighbourhood","source":"OpenStreetMap contributors (ODbL)"},"geometry":{"type":"Point","coordinates":[123.8893501,10.2996821]}},{"type":"Feature","properties":{"name":"Tabo-an","placeType":"neighbourhood","source":"OpenStreetMap contributors (ODbL)"},"geometry":{"type":"Point","coordinates":[123.8908589,10.2938209]}},{"type":"Feature","properties":{"name":"Villa Aurora","placeType":"neighbourhood","source":"OpenStreetMap contributors (ODbL)"},"geometry":{"type":"Point","coordinates":[123.9121824,10.3260643]}},{"type":"Feature","properties":{"name":"Butterfly","placeType":"neighbourhood","source":"OpenStreetMap contributors (ODbL)"},"geometry":{"type":"Point","coordinates":[123.946335,10.2901421]}},{"type":"Feature","properties":{"name":"Bombshell","placeType":"neighbourhood","source":"OpenStreetMap contributors (ODbL)"},"geometry":{"type":"Point","coordinates":[123.9443985,10.2866657]}},{"type":"Feature","properties":{"name":"Tangke","placeType":"neighbourhood","source":"OpenStreetMap contributors (ODbL)"},"geometry":{"type":"Point","coordinates":[123.9577679,10.2918588]}},{"type":"Feature","properties":{"name":"Eskwelahan","placeType":"neighbourhood","source":"OpenStreetMap contributors (ODbL)"},"geometry":{"type":"Point","coordinates":[123.9622767,10.2951681]}},{"type":"Feature","properties":{"name":"Pasancepajo","placeType":"neighbourhood","source":"OpenStreetMap contributors (ODbL)"},"geometry":{"type":"Point","coordinates":[123.9585645,10.3122111]}},{"type":"Feature","properties":{"name":"Calderohan","placeType":"neighbourhood","source":"OpenStreetMap contributors (ODbL)"},"geometry":{"type":"Point","coordinates":[123.9349866,10.3452634]}},{"type":"Feature","properties":{"name":"Sudlon","placeType":"neighbourhood","source":"OpenStreetMap contributors (ODbL)"},"geometry":{"type":"Point","coordinates":[123.9392158,10.3450714]}},{"type":"Feature","properties":{"name":"Morado","placeType":"neighbourhood","source":"OpenStreetMap contributors (ODbL)"},"geometry":{"type":"Point","coordinates":[123.9246641,10.3561567]}},{"type":"Feature","properties":{"name":"Abbra","placeType":"neighbourhood","source":"OpenStreetMap contributors (ODbL)"},"geometry":{"type":"Point","coordinates":[123.9515397,10.3370435]}},{"type":"Feature","properties":{"name":"Sudlon","placeType":"neighbourhood","source":"OpenStreetMap contributors (ODbL)"},"geometry":{"type":"Point","coordinates":[123.9421645,10.3397506]}},{"type":"Feature","properties":{"name":"Mindolog","placeType":"neighbourhood","source":"OpenStreetMap contributors (ODbL)"},"geometry":{"type":"Point","coordinates":[123.9703274,10.2655239]}},{"type":"Feature","properties":{"name":"Kapaping","placeType":"neighbourhood","source":"OpenStreetMap contributors (ODbL)"},"geometry":{"type":"Point","coordinates":[123.9700954,10.2838636]}},{"type":"Feature","properties":{"name":"Soong 1","placeType":"quarter","source":"OpenStreetMap contributors (ODbL)"},"geometry":{"type":"Point","coordinates":[124.0024187,10.2986173]}},{"type":"Feature","properties":{"name":"Soong Center","placeType":"neighbourhood","source":"OpenStreetMap contributors (ODbL)"},"geometry":{"type":"Point","coordinates":[124.0015791,10.3024293]}},{"type":"Feature","properties":{"name":"Dapdap","placeType":"neighbourhood","source":"OpenStreetMap contributors (ODbL)"},"geometry":{"type":"Point","coordinates":[124.00897,10.3008723]}},{"type":"Feature","properties":{"name":"Ouano Compound","placeType":"neighbourhood","source":"OpenStreetMap contributors (ODbL)"},"geometry":{"type":"Point","coordinates":[123.9489609,10.3211944]}},{"type":"Feature","properties":{"name":"Sawsawan","placeType":"neighbourhood","source":"OpenStreetMap contributors (ODbL)"},"geometry":{"type":"Point","coordinates":[123.8600859,10.2514008]}},{"type":"Feature","properties":{"name":"Laray","placeType":"neighbourhood","source":"OpenStreetMap contributors (ODbL)"},"geometry":{"type":"Point","coordinates":[123.8610327,10.2535981]}},{"type":"Feature","properties":{"name":"Villa Monilar","placeType":"neighbourhood","source":"OpenStreetMap contributors (ODbL)"},"geometry":{"type":"Point","coordinates":[123.9739568,10.379944]}},{"type":"Feature","properties":{"name":"El Dorado Subdivision","placeType":"neighbourhood","source":"OpenStreetMap contributors (ODbL)"},"geometry":{"type":"Point","coordinates":[123.9135584,10.3428372]}},{"type":"Feature","properties":{"name":"Baca","placeType":"neighbourhood","source":"OpenStreetMap contributors (ODbL)"},"geometry":{"type":"Point","coordinates":[123.9101782,10.3380329]}},{"type":"Feature","properties":{"name":"Looc","placeType":"neighbourhood","source":"OpenStreetMap contributors (ODbL)"},"geometry":{"type":"Point","coordinates":[123.9968477,10.2855408]}},{"type":"Feature","properties":{"name":"Cogon","placeType":"neighbourhood","source":"OpenStreetMap contributors (ODbL)"},"geometry":{"type":"Point","coordinates":[123.9932723,10.2879909]}},{"type":"Feature","properties":{"name":"Kalumbayan","placeType":"hamlet","source":"OpenStreetMap contributors (ODbL)"},"geometry":{"type":"Point","coordinates":[123.8496073,10.3113326]}},{"type":"Feature","properties":{"name":"Magpalacir","placeType":"neighbourhood","source":"OpenStreetMap contributors (ODbL)"},"geometry":{"type":"Point","coordinates":[123.9063384,10.3144837]}},{"type":"Feature","properties":{"name":"Tagaytay","placeType":"neighbourhood","source":"OpenStreetMap contributors (ODbL)"},"geometry":{"type":"Point","coordinates":[123.9619938,10.40047]}},{"type":"Feature","properties":{"name":"Canjulao","placeType":"neighbourhood","source":"OpenStreetMap contributors (ODbL)"},"geometry":{"type":"Point","coordinates":[123.9441411,10.2877589]}},{"type":"Feature","properties":{"name":"Lamacan","placeType":"neighbourhood","source":"OpenStreetMap contributors (ODbL)"},"geometry":{"type":"Point","coordinates":[123.8567251,10.3712803]}},{"type":"Feature","properties":{"name":"Andrew's Village","placeType":"neighbourhood","source":"OpenStreetMap contributors (ODbL)"},"geometry":{"type":"Point","coordinates":[123.9211056,10.3891817]}},{"type":"Feature","properties":{"name":"Camote","placeType":"neighbourhood","source":"OpenStreetMap contributors (ODbL)"},"geometry":{"type":"Point","coordinates":[123.9958042,10.3624639]}},{"type":"Feature","properties":{"name":"Upper Looc","placeType":"quarter","source":"OpenStreetMap contributors (ODbL)"},"geometry":{"type":"Point","coordinates":[123.9951103,10.3618789]}},{"type":"Feature","properties":{"name":"Tagaytay","placeType":"quarter","source":"OpenStreetMap contributors (ODbL)"},"geometry":{"type":"Point","coordinates":[123.9955761,10.3690624]}},{"type":"Feature","properties":{"name":"Kamatis","placeType":"neighbourhood","source":"OpenStreetMap contributors (ODbL)"},"geometry":{"type":"Point","coordinates":[123.9959204,10.3682374]}},{"type":"Feature","properties":{"name":"Purok 4","placeType":"neighbourhood","source":"OpenStreetMap contributors (ODbL)"},"geometry":{"type":"Point","coordinates":[123.9456202,10.2610701]}},{"type":"Feature","properties":{"name":"Coaco Compound","placeType":"neighbourhood","source":"OpenStreetMap contributors (ODbL)"},"geometry":{"type":"Point","coordinates":[123.8611266,10.2981278]}},{"type":"Feature","properties":{"name":"San Lorenzo Village","placeType":"neighbourhood","source":"OpenStreetMap contributors (ODbL)"},"geometry":{"type":"Point","coordinates":[123.8667016,10.2925198]}},{"type":"Feature","properties":{"name":"Tres de Abril Village","placeType":"neighbourhood","source":"OpenStreetMap contributors (ODbL)"},"geometry":{"type":"Point","coordinates":[123.8771984,10.2987532]}},{"type":"Feature","properties":{"name":"Zomer Subdivision","placeType":"neighbourhood","source":"OpenStreetMap contributors (ODbL)"},"geometry":{"type":"Point","coordinates":[123.8676524,10.3054087]}},{"type":"Feature","properties":{"name":"Ucma Village","placeType":"neighbourhood","source":"OpenStreetMap contributors (ODbL)"},"geometry":{"type":"Point","coordinates":[123.9044926,10.3295646]}},{"type":"Feature","properties":{"name":"Albano Subdivision","placeType":"neighbourhood","source":"OpenStreetMap contributors (ODbL)"},"geometry":{"type":"Point","coordinates":[123.9283441,10.3381404]}},{"type":"Feature","properties":{"name":"San Vicente Village","placeType":"neighbourhood","source":"OpenStreetMap contributors (ODbL)"},"geometry":{"type":"Point","coordinates":[123.9229274,10.3282664]}},{"type":"Feature","properties":{"name":"Banilad Greens Subdivision","placeType":"neighbourhood","source":"OpenStreetMap contributors (ODbL)"},"geometry":{"type":"Point","coordinates":[123.914237,10.341283]}},{"type":"Feature","properties":{"name":"Sudlon","placeType":"neighbourhood","source":"OpenStreetMap contributors (ODbL)"},"geometry":{"type":"Point","coordinates":[123.9447632,10.3274272]}},{"type":"Feature","properties":{"name":"Carlosville Subdivision","placeType":"neighbourhood","source":"OpenStreetMap contributors (ODbL)"},"geometry":{"type":"Point","coordinates":[124.0001535,10.3834114]}},{"type":"Feature","properties":{"name":"Molave","placeType":"neighbourhood","source":"OpenStreetMap contributors (ODbL)"},"geometry":{"type":"Point","coordinates":[124.004252,10.3803826]}},{"type":"Feature","properties":{"name":"Palm View Village","placeType":"neighbourhood","source":"OpenStreetMap contributors (ODbL)"},"geometry":{"type":"Point","coordinates":[123.8427106,10.2643441]}},{"type":"Feature","properties":{"name":"Insiang Goriong Hills","placeType":"neighbourhood","source":"OpenStreetMap contributors (ODbL)"},"geometry":{"type":"Point","coordinates":[123.8763991,10.3065989]}},{"type":"Feature","properties":{"name":"Saremaa","placeType":"neighbourhood","source":"OpenStreetMap contributors (ODbL)"},"geometry":{"type":"Point","coordinates":[123.8932876,10.2967924]}},{"type":"Feature","properties":{"name":"Fatima","placeType":"neighbourhood","source":"OpenStreetMap contributors (ODbL)"},"geometry":{"type":"Point","coordinates":[123.8942599,10.3286727]}},{"type":"Feature","properties":{"name":"Zone Sikwa","placeType":"neighbourhood","source":"OpenStreetMap contributors (ODbL)"},"geometry":{"type":"Point","coordinates":[123.9518389,10.3458808]}},{"type":"Feature","properties":{"name":"Tugas","placeType":"neighbourhood","source":"OpenStreetMap contributors (ODbL)"},"geometry":{"type":"Point","coordinates":[123.9498031,10.3091058]}},{"type":"Feature","properties":{"name":"Pony Ville","placeType":"neighbourhood","source":"OpenStreetMap contributors (ODbL)"},"geometry":{"type":"Point","coordinates":[123.9721392,10.2633874]}},{"type":"Feature","properties":{"name":"Hermag Village","placeType":"neighbourhood","source":"OpenStreetMap contributors (ODbL)"},"geometry":{"type":"Point","coordinates":[123.9445487,10.3500854]}}]}